38040,GLOBALSTAR M084,2011,114.08,700.0,+,52.0,Active,1,LEO,Kazakhstan,Globalstar,Commercial,Communications,Soyuz,1 38040U 11080A   23234.49800251 -.00000086  00000+0  97013-4 0  9996,2 38040  51.9995 272.0345 0000428  80.0399  62.5484 12.62265027539000,12.62265027,4.28e-05,LEO
38041,GLOBALSTAR M080,2011,114.08,700.0,+,52.01,Active,1,LEO,Kazakhstan,Globalstar,Commercial,Communications,Soyuz,1 38041U 11080B   23234.55310285 -.00000087  00000+0  94294-4 0  9996,2 38041  52.0048 273.2391 0000368  52.2461 101.4416 12.62263726538999,12.62263726,3.68e-05,LEO
38042,GLOBALSTAR M082,2011,114.08,700.0,+,52.0,Active,1,LEO,Kazakhstan,Globalstar,Commercial,Communications,Soyuz,1 38042U 11080C   23235.43004628 -.00000095  00000+0  51327-4 0  9995,2 38042  52.0049 225.9437 0000645 160.0903 320.2045 12.62270154539840,12.62270154,6.45e-05,LEO
38043,GLOBALSTAR M092,2011,114.08,700.0,+,52.01,Active,1,LEO,Kazakhstan,Globalstar,Commercial,Communications,Soyuz,1 38043U 11080D   23234.44471428 -.00000092  00000+0  63836-4 0  9997,2 38043  52.0098 319.2856 0000831  88.8074 351.9334 12.62271641538214,12.62271641,8.31e-05,LEO
38044,GLOBALSTAR M090,2011,114.08,700.0,+,51.99,Active,1,LEO,Kazakhstan,Globalstar,Commercial,Communications,Soyuz,1 38044U 11080E   23235.38321132 -.00000093  00000+0  61816-4 0  9995,2 38044  51.9857 220.7502 0000155 147.0862   0.3439 12.62267021539828,12.62267021,1.55e-05,LEO
38045,GLOBALSTAR M086,2011,114.08,700.0,+,51.99,Active,1,LEO,Kazakhstan,Globalstar,Commercial,Communications,Soyuz,1 38045U 11080F   23234.37958295 -.00000093  00000+0  60777-4 0  9995,2 38045  51.9872 224.3049 0000891 293.5789 211.6906 12.62269597539707,12.62269597,8.91e-05,LEO
39072,GLOBALSTAR M097,2013,114.08,700.0,+,52.0,Active,1,LEO,Kazakhstan,Globalstar,Commercial,Communications,Soyuz,1 39072U 13005A   23235.08704950 -.00000087  00000+0  94561-4 0  9992,2 39072  52.0041 136.0246 0000236  68.5016 291.5876 12.62270274487026,12.62270274,2.36e-05,LEO
39073,GLOBALSTAR M093,2013,114.08,700.0,+,51.98,Active,1,LEO,Kazakhstan,Globalstar,Commercial,Communications,Soyuz,1 39073U 13005B   23234.18937601 -.00000081  00000+0  12475-3 0  9991,2 39073  51.9806 133.1237 0000051  33.9062 326.1808 12.62266107486900,12.62266107,5.1e-06,LEO
